name_location,website,boro,address_area,longitude,latitude,type,color,hov_txt
東灘小学校,http://themarymitchellfyc.org/,東灘,神戸市東灘区深江北町2-4-1,135.29443,34.72482,津波対応,#ff00ff,"compost<br>Name: Mary Mitchell Center <br>Address: 2007 Mapes Ave, Bronx 10460"
本庄小学校,http://www.grownyc.org/compost/locations,東灘,神戸市東灘区青木4-4-1,135.2887,34.72102,土砂対応,#ff00ff,"compost<br>Name: Bronx Borough Hall Greenmarket<br>Address: Grand Concourse and 161 St, Bronx, NY, 10451"
本庄中学校,http://www.grownyc.org/compost/locations,東灘,神戸市東灘区青木4-4-2,135.28754,34.72046,地震対応,#ff00ff,compost<br>Name: Compost drop off BronxWorks <br>Address: 1130 Grand Concourse
東灘高校,http://www.grownyc.org/compost/locations,東灘,神戸市東灘区深江浜町50,135.30105,34.70998,（成人用）備蓄不足,#ff00ff,"compost<br>Name: Learn it, Grow it, Eat it Youthmarket<br>Address: McKinley Sq. at 169th St. & Boston Road"
神戸大学海洋政策科学部,http://www.grownyc.org/compost/locations,東灘,神戸市東灘区深江南町5-1-1,135.28836,34.71874,（女性用）備蓄不足,#ff00ff,"compost<br>Name: Parkchester Greenmarket<br>Address: White Plains Rd & Westchester Ave, Bronx, NY 10472"
魚崎小学校,http://www.grownyc.org/compost/locations,東灘,神戸市東灘区魚崎中町4-10-8,135.27126,34.71497,（老人用）備蓄不足,#ff00ff,"compost<br>Name: Poe Park Greenmarket<br>Address: E. 192 St. btwn Grand Concourse and Valentine, Bronx, NY, 10468"
灘中・高校,http://www.lehman.edu/administration/sustainability/food-scrap-drop-off.php,東灘,神戸市東灘区魚崎北町8-5-1,135.26845,34.71916,（赤ちゃん用）備蓄不足,#ff00ff,compost<br>Name: Compost drop off Lehman College<br>Address: Lehman Quad near Shuster Hall
本山第一小学校,https://newsettlement.org/food/170farmstand/,東灘,神戸市東灘区本山北町3-10-1,135.27891,34.72894,混雑度 ‾25%,#ff00ff,compost<br>Name: Compost drop off 170 Farmstand<br>Address: Townsend Ave & 170 St
甲南女子中・高校,https://www.facebook.com/kellyst.garden/,東灘,神戸市東灘区森北町5-6-1,135.29173,34.73492,混雑度 25‾50%,#ff00ff,compost<br>Name: Kelly Street Garden<br>Address: 924 Kelly Street
甲南女子大学,https://www.grownyc.org/compost/locations,東灘,神戸市東灘区森北町6-2-23,135.28747,34.7348,混雑度 50‾75%,#ff00ff,compost<br>Name: Project H.O.P.E. Fresh Food Box<br>Address: 854 Hunts Point Ave
神戸薬科大学,https://www.grownyc.org/compost/locations,東灘,神戸市東灘区本山北町4-19-1,135.28327,34.73312,混雑度 75‾100%,#ff00ff,compost<br>Name: Compost drop off We Stay-Nos Quedamos <br>Address: 754 Melrose Avenue
本山第二小学校,https://www.grownyc.org/compost/locations; http://www.lafamiliaverde.org/,東灘,神戸市東灘区西岡本1-3-1,135.26958,34.72533,混雑度 100‾125%,#ff00ff,"compost<br>Name: La Familia Verde Farmer's Market<br>Address: E Tremont Ave, between Lafontaine and Arthur Aves, Bronx 10457"
本山中学校,https://www.grownyc.org/compost-go,東灘,神戸市東灘区岡本3-3-1,135.27094,34.72563,混雑度 125‾150%,#ff00ff,"compost<br>Name: Compost drop off Burnside Ave<br>Address: Burnside Ave, Jerome Ave - SW Corner"
甲南大学,https://www.grownyc.org/compost-go,東灘,神戸市東灘区岡本8-9-1,135.26799,34.72973,混雑度 150‾200%,#ff00ff,"compost<br>Name: Compost on-the-go<br>Address: 138th, Brook Ave - NW Corner"
本山第三小学校,https://www.grownyc.org/compost-go,東灘,神戸市東灘区本山中町1-2-35,135.28641,34.72809,津波対応,#ff00ff,"compost<br>Name: Compost on-the-go<br>Address: 149th St, Melrose, & 3rd Ave - N Corner"
住吉小学校,https://www.grownyc.org/compost-go,東灘,神戸市東灘区住吉東町4-1-31,135.26449,34.71757,土砂対応,#ff00ff,"compost<br>Name: Compost on-the-go<br>Address: 161st, River Ave - NE Corner"
住之江公民館,https://www.grownyc.org/compost-go,東灘,神戸市東灘区住吉宮町2-2-3,135.26366,34.71398,地震対応,#ff00ff,"compost<br>Name: Compost on-the-go<br>Address: Grand Concourse, 149th Street - SE Corner"
住之江公民館別館,https://www.grownyc.org/compost-go,東灘,神戸市東灘区住吉宮町2-1-3,135.26468,34.7143,土砂対応,#ff00ff,compost<br>Name: Compost drop off Fordham Road<br>Address: E Fordham Road & Jerome Ave - SE Corner
呉田会館,https://www.grownyc.org/greenmarket/bronx/fordham,東灘,神戸市東灘区住吉南町4-6-23,135.26249,34.71079,地震対応,#ff00ff,compost<br>Name: Fordham Plaza Greenmarket<br>Address: E Fordham Rd btw Webster Ave & Third Ave - S
御影小学校,,東灘,神戸市東灘区御影石町3-1-1,135.25151,34.71481,津波対応,#ff00ff,"compost<br>Name: Bainbridge Avenue Community Garden<br>Address: 2980 Bainbridge Avenue, Bronx, NY 10458"
御影高校,,東灘,神戸市東灘区御影石町4-1-1,135.25058,34.71696,土砂対応,#ff00ff,compost<br>Name: Compost drop off Brook Park<br>Address: 494 East 141 St.
御影公会堂,,東灘,神戸市東灘区御影石町4-4-1,135.24925,34.71607,地震対応,#ff00ff,compost<br>Name: Meg's Community Garden in Dewitt Clinton High School Campus<br>Address: 100 West Mosholu Parkway
御影北小学校,,東灘,神戸市東灘区御影山手1-12-1,135.24881,34.72463,津波対応,#ff00ff,compost<br>Name: New Roots Community Farm<br>Address: 670 Grand Concourse
頌栄短期大学,,東灘,神戸市東灘区御影山手1-18-1,135.24914,34.72744,土砂対応,#ff00ff,compost<br>Name: St. Augustine Food Pantry<br>Address: 1168 Franklin Ave
渦が森小学校,http://eastfourthstreetgarden.tumblr.com/,東灘,神戸市東灘区渦森台1-12-1,135.25035,34.73898,地震対応,#ff00ff,compost<br>Name: East 4th Street Community Garden<br>Address: 173 East 4th Street
幼保連携型認定こども園同朋住吉台こども園,http://www.added-value.org/compost,東灘,神戸市東灘区住吉台25-7,135.2568,34.73862,津波対応,#ff00ff,compost<br>Name: Red Hook Community Farm<br>Address: Otsego Street and Beard Street
六甲アイランド小学校,http://www.bigreuse.org/compost/drop-off-list/,東灘,神戸市東灘区向洋町中2-7,135.2745,34.68886,土砂対応,#ff00ff,"compost<br>Name: Compost drop off Big Reuse Brooklyn<br>Address: 69 9th St, Brooklyn, NY, 11215"
向洋中学校,http://www.grownyc.org/compost/locations,東灘,神戸市東灘区向洋町中2,135.27406,34.68994,地震対応,#ff00ff,"compost<br>Name: Brooklyn Borough Hall Greenmarket <br>Address: Court St & Montague St, Brooklyn, NY 11201"
六甲アイランド高校,http://www.grownyc.org/compost/locations,東灘,神戸市東灘区向洋町中4-4,135.27143,34.68483,土砂対応,#ff00ff,"compost<br>Name: Carroll Gardens Greenmarket<br>Address: Carroll St. btwn Smith & Court Sts, Brooklyn, NY 11231"
福池小学校,http://www.grownyc.org/compost/locations,東灘,神戸市東灘区本山南町4-4-28,135.27877,34.72128,地震対応,#ff00ff,"compost<br>Name: Cortelyou Greenmarket<br>Address: Cortelyou Rd at Rugby Rd, Brooklyn, NY, 11226"
本山南小学校,http://www.grownyc.org/compost/locations,東灘,神戸市東灘区本山南町8-2-1,135.28246,34.72357,津波対応,#ff00ff,"compost<br>Name: Fort Greene Greenmarket<br>Address: Washington Park between Willoughby Avenue & Dekalb Avenue, Brooklyn, NY 11201"
神戸大学白鴎寮,http://www.grownyc.org/compost/locations,東灘,神戸市東灘区本山南町1-4-50,135.28764,34.72352,土砂対応,#ff00ff,"compost<br>Name: Grand Army Plaza Greenmarket<br>Address: Prospect Park West & Plaza Street West, Brooklyn, 11238"
向洋小学校,http://www.grownyc.org/compost/locations,東灘,神戸市東灘区向洋町中6,135.26449,34.68768,地震対応,#ff00ff,"compost<br>Name: McCarren Park Greenmarket<br>Address: Union Ave at Driggs Ave,Brooklyn,NY,11222"
甲南小学校,http://www.parkchurchcoop.org,東灘,神戸市東灘区住吉本町1-12-1,135.264,34.72227,津波対応,#ff00ff,"compost<br>Name: Park Church Co-op<br>Address: Park Church Co-op, 129 Russell Street Brooklyn"
神大附属中等教育学校,https://ucceny.org/enyf/,東灘,神戸市東灘区住吉山手5-11-1,135.2545,34.73202,土砂対応,#ff00ff,compost<br>Name: Bay View Houses Farm<br>Address: 5955 Shore Parkway
本山南中学校,https://ucceny.org/enyf/,東灘,神戸市東灘区田中町4-12-1,135.27053,34.72312,地震対応,#ff00ff,compost<br>Name: Pink Houses Community Farm<br>Address: 1257 Loring Avenue
住吉中学校,https://ucceny.org/enyf/,東灘,神戸市東灘区住吉山手1-11-1,135.25872,34.72586,津波対応,#ff00ff,compost<br>Name: UCC Youth Farm<br>Address: 613 New Lots Avenue
御影中学校,https://www.grownyc.org/greenmarket/brooklyn/parkside,東灘,神戸市東灘区御影中町5-1-1,135.25353,34.71594,土砂対応,#ff00ff,"compost<br>Name: Compost drop off Parkside<br>Address: Ocean Ave & Parkside Ave, Brooklyn, NY 11226"
魚崎中学校,http://www.462halsey.com/compost/,東灘,神戸市東灘区魚崎南町1-2-1,135.27905,34.71312,地震対応,#ff00ff,compost<br>Name: 462 Halsey Community Farm Fresh Food Box<br>Address: 462 Halsey Street
東灘体育館,https://www.phcfarm.com/gardening-info/composting/,東灘,神戸市東灘区魚崎南町6-5-11,135.27812,34.71467,土砂対応,#ff00ff,compost<br>Name: Prospect Heights Community Farm<br>Address: 252 St. Marks Ave
鶴甲小学校,https://www.qgardens.org,灘,神戸市灘区鶴甲2-10-1,135.23639,34.73358,地震対応,#ff00ff,"compost<br>Name: Q Gardens Community Farm, Inc.<br>Address: 58 E 18th St, Brooklyn, NY 11226"
神戸大学農学部,https://www.riseboro.org/rb/health/bushwick_cooks/bushwick-grows-community-farm/,灘,神戸市灘区六甲台町1-1,135.23327,34.72464,津波対応,#ff00ff,compost<br>Name: Bushwick Grows! Community Garden<br>Address: 1474 Gates Ave
神戸大学工学部,https://wyckoffmuseum.org/,灘,神戸市灘区六甲台町1-1,135.23749,34.72699,土砂対応,#ff00ff,compost<br>Name: Wyckoff Farmhouse Museum<br>Address: 5816 Clarendon Rd
神戸大学大学院人間発達環境学研究科,,灘,神戸市灘区鶴甲３-11,135.23454,34.73345,地震対応,#ff00ff,compost<br>Name: Essex Community Garden<br>Address: 3030 Fulton Street
神戸松蔭女子学院大学,,灘,神戸市灘区篠原伯母野山町1-2-1,135.22952,34.72736,津波対応,#ff00ff,compost<br>Name: Imani Garden<br>Address: 1680 Pacific Street
成徳小学校,,灘,神戸市灘区備後町1-3-1,135.24221,34.71561,土砂対応,#ff00ff,compost<br>Name: Irving Square Park<br>Address: Corner of Halsey and Knickerbocker
高羽小学校,,灘,神戸市灘区高羽町3-11-11,135.23947,34.72327,地震対応,#ff00ff,compost<br>Name: Phoenix Community Garden<br>Address: 20 Somers Street
親和女子高校・親和中学校,http://bryantpark.org/programs/waste-sorting-concierge,灘,神戸市灘区土山町6-1,135.24203,34.72676,津波対応,#ff00ff,compost<br>Name: Bryant Park<br>Address: 6th Avenue and 41st Sreet
西郷小学校,http://m.facebook.com/pleasantvillagecommunitygarden,灘,神戸市灘区大石東町6-2-1,135.23275,34.70697,土砂対応,#ff00ff,compost<br>Name: Pleasant Village Community Garden<br>Address: 342 Pleasant Ave
六甲小学校,http://www.bigreuse.org/compost/drop-off-list/,灘,神戸市灘区八幡町4-4-1,135.23338,34.71769,地震対応,#ff00ff,compost<br>Name: Roosevelt Island under the Helix<br>Address: 543 West Main Street at the Chapel of the Good Shepherd
福住小学校,http://www.grownyc.org/compost/locations,灘,神戸市灘区福住通7-1-1,135.21849,34.71315,土砂対応,#ff00ff,"compost<br>Name: Compost drop off 175th Street Greenmarket <br>Address: 175th Street between Wadsworth Avenue and Broadway, New York, NY"
神戸高校,http://www.grownyc.org/compost/locations,灘,神戸市灘区城の下通1-5-1,135.21395,34.71835,地震対応,#ff00ff,compost<br>Name: Compost drop off 79th St Greenmarket<br>Address: Columbus Avenue and 79th Street
王子スポーツセンター,http://www.grownyc.org/compost/locations,灘,神戸市灘区青谷町1-1-1,135.21272,34.71124,津波対応,#ff00ff,compost<br>Name: Compost drop off 82nd St Greenmarket [St. Stevens]<br>Address: 82nd Street between 1st and York Avenues
西灘小学校,http://www.grownyc.org/compost/locations,灘,神戸市灘区船寺通3-4-1,135.22778,34.7078,土砂対応,#ff00ff,"compost<br>Name: Compost drop off 97th Street Greenmarket <br>Address: 97th St between Columbus & Amsterdam, Manhattan"
原田中学校,http://www.grownyc.org/compost/locations,灘,神戸市灘区船寺通2-4-1,135.22875,34.70796,地震対応,#ff00ff,"compost<br>Name: Abingdon Square Greenmarket<br>Address: West 12 Street and 8 Avenue,New York,NY,10014"
稗田小学校,http://www.grownyc.org/compost/locations,灘,神戸市灘区岸地通4-2-1,135.22241,34.71134,津波対応,#ff00ff,"compost<br>Name: Bowling Green Greenmarket<br>Address: Broadway at Battery Place,New York,NY, 10004"
美野丘小学校,http://www.grownyc.org/compost/locations,灘,神戸市灘区箕岡通1-3-17,135.22118,34.72308,土砂対応,#ff00ff,"compost<br>Name: Columbia University Greenmarket<br>Address: Broadway at West 114 St,New York,NY,10025"
上野中学校,http://www.grownyc.org/compost/locations,灘,神戸市灘区国玉通1-1-1,135.22289,34.7193,地震対応,#ff00ff,compost<br>Name: Compost on-the-go Greenmarket<br>Address: 10th Avenue & West 57th Street
摩耶小学校,http://www.grownyc.org/compost/locations,灘,神戸市灘区畑原通4-1-1,135.22057,34.71573,津波対応,#ff00ff,"compost<br>Name: Compost on-the-go Greenmarket<br>Address: 1st Ave between 92nd and 93rd St,New York,NY,10128"
灘小学校,http://www.grownyc.org/compost/locations,灘,神戸市灘区千旦通1-5-1,135.23255,34.71326,土砂対応,#ff00ff,"compost<br>Name: Fort Washington Greenmarket<br>Address: 168th Street at Fort Washington,New York,NY 10032"
六甲山小学校,http://www.grownyc.org/compost/locations,灘,神戸市灘区六甲山町北六甲4512-42,135.23225,34.75739,地震対応,#ff00ff,"compost<br>Name: Inwood Greenmarket<br>Address: Isham St at Cooper,New York,NY, 10034"
鷹匠中学校,http://www.grownyc.org/compost/locations,灘,神戸市灘区高徳町2-2-19,135.24385,34.72015,土砂対応,#ff00ff,"compost<br>Name: Mount Sinai Greenmarket<br>Address: East 99th St at Madison,New York,NY, 10029"
烏帽子中学校,http://www.grownyc.org/compost/locations,灘,神戸市灘区烏帽子町1-2-1,135.23763,34.71067,地震対応,#ff00ff,"compost<br>Name: Tompkins Square Greenmarket<br>Address: E 7th St & Avenue A, New York, NY 10009"
長峰中学校,http://www.grownyc.org/compost/locations,灘,神戸市灘区長峰台2-2-1,135.22261,34.7248,津波対応,#ff00ff,"compost<br>Name: Tucker Square Greenmarket<br>Address: Columbus Ave & W 66th St, New York, NY 10023"
灘の浜小学校,http://www.grownyc.org/compost/locations,灘,神戸市灘区摩耶海岸通2-2-1,135.2237,34.70201,土砂対応,#ff00ff,"compost<br>Name: Union Square Greenmarket<br>Address: E 17th St & Union Square E, New York, NY"
上筒井小学校,http://www.grownyc.org/greenmarketco/foodbox,中央,神戸市中央区野崎通1-1-2,135.21142,34.70992,地震対応,#ff00ff,compost<br>Name: Lenox Hill Neighborhood House Fresh Food Box<br>Address: 1st Avenue Between 70th St and 71st St
筒井台中学校,http://www.grownyc.org/greenmarketco/foodbox,中央,神戸市中央区野崎通1-1-3,135.21007,34.70931,津波対応,#ff00ff,"compost<br>Name: Uptown Grand Central Fresh Food Box<br>Address: 125th Street at Park Avenue, outside the Metro-North Station"
葺合高校,http://www.harlemgrown.org/,中央,神戸市中央区野崎通1-1-1,135.21028,34.71101,土砂対応,#ff00ff,compost<br>Name: Harlem Grown<br>Address: 118 W 134th St
宮本小学校,http://www.lesecologycenter.org/programs/compost/compost-drop-off-locations/,中央,神戸市中央区宮本通2-1-36,135.21177,34.70672,地震対応,#ff00ff,compost<br>Name: Compost drop off 127 Street & Malcolm X<br>Address: 77 West 127th Street between Malcolm X Boulevard and 5th Ave
科学技術高校,http://www.mkgarden.org,中央,神戸市中央区脇浜町1-4-70,135.21353,34.7043,津波対応,#ff00ff,compost<br>Name: M'Finda Kalunga Garden<br>Address: Rivington and Forsyth
葺合中学校,http://www.nyrp.org,中央,神戸市中央区熊内町1-4-28,135.20325,34.70684,土砂対応,#ff00ff,compost<br>Name: Compost drop off Swindler Cove<br>Address: 3703 10th Avenue
春日野小学校,http://www.reclaimedorganics.org/QTVMZ/garden,中央,神戸市中央区宮本通7-1-6,135.20614,34.70566,地震対応,#ff00ff,compost<br>Name: East Side Outside Community Garden<br>Address: 415 East 11th St
なぎさ小学校,https://brotherhood-sistersol.org/,中央,神戸市中央区脇浜海岸通2-4-1,135.21101,34.69774,土砂対応,#ff00ff,compost<br>Name: Hamilton Heights Green Youth Market<br>Address: 512 West 143rd Street
渚中学校,https://earthmatter.org/nyc-compost-project/,中央,神戸市中央区脇浜海岸通2-1-1,135.21757,34.70047,地震対応,#ff00ff,"compost<br>Name: Earth Matter, Compost Learning Center<br>Address: Urban Farm, Governors Island"
雲中小学校,https://earthmatter.org/nyc-compost-project/,中央,神戸市中央区熊内町3-1-7,135.20015,34.70597,津波対応,#ff00ff,compost<br>Name: Governors Islands Zero Waste Stations<br>Address: Several locations throughout Governors Island
布引中学校,https://holyapostlessoupkitchen.org,中央,神戸市中央区熊内町6-7-1,135.19916,34.70941,土砂対応,#ff00ff,compost<br>Name: Compost drop off Church of the Holy Apostles<br>Address: 296 Ninth Avenue
中央小学校,https://hudsonriverpark.org/explore-the-park/community-compost-program,中央,神戸市中央区神若通7-1-1,135.19969,34.70174,地震対応,#ff00ff,compost<br>Name: Hudson Blvd Park<br>Address: 5 Hudson Blvd East
コミスタこうべ（生涯学習支援センター）,https://morrisjumelcommunitygarden.wordpress.com/,中央,神戸市中央区吾妻通4-1-6,135.20463,34.69823,津波対応,#ff00ff,compost<br>Name: Morris- Jumel Community Garden<br>Address: 455-457 West 162nd Street
葺合公民館,https://www.14streety.org/about-us/sustainability/,中央,神戸市中央区真砂通2-1-1,135.20454,34.69498,土砂対応,#ff00ff,compost<br>Name: Compost drop off 14th Street Y<br>Address: 344 E 14th Street
磯上体育館,https://www.bj.org,中央,神戸市中央区八幡通2-1-38,135.19932,34.69218,地震対応,#ff00ff,[自治体] 避難所<br>Name: 磯上体育館<br>Address: 神戸市中央区八幡通2-1-38<br>土砂◯ 洪水◯ 津波◯<br>混雑度 75%<br>備蓄(成人) 5.5%<br>備蓄(女性) -10.1%<br>備蓄(老人) -20.3%<br>備蓄(幼児) -16.1%
こうべ市民福祉交流センター,https://www.facebook.com/lydiasmagicgarden/,中央,神戸市中央区磯上通3-1-32,135.20177,34.69286,津波対応,#ff00ff,"compost<br>Name: Lydia's Magic Garden<br>Address: 1665 Park Avenue, Manhattan 10035, between 117th and 118th Streets"
こうべ小学校,https://www.grownyc.org/compost/locations,中央,神戸市中央区中山手通4-23-2,135.18247,34.69356,土砂対応,#ff00ff,"compost<br>Name: Tribeca Greenmarket Compost on-the-go<br>Address: Greenwich Street at Chambers Street,New York,NY"
浄福寺,https://www.grownyc.org/compost-go,中央,神戸市中央区北野町4-11-19,135.18815,34.70017,地震対応,#ff00ff,compost<br>Name: Compost drop off Cathedral Parkway (110th St) <br>Address: 110th & Central Park West - SW Corner
海外移住と文化の交流センター,https://www.grownyc.org/compost-go,中央,神戸市中央区山本通3-19-8,135.18464,34.69742,土砂対応,#ff00ff,"compost<br>Name: Compost drop off Central Park North (110th St)<br>Address: 110th, St. Nicholas, & Malcolm X - NW Corner (Public Plaza)"
神戸生田中学校,https://www.grownyc.org/compost-go,中央,神戸市中央区北長狭通4-10-1,135.18566,34.68999,地震対応,#ff00ff,compost<br>Name: Compost drop off City College<br>Address: Broadway & Hamilton Place - N (Montefiore Square)
山の手小学校,https://www.grownyc.org/compost-go,中央,神戸市中央区中山手通7-31-1,135.17573,34.69065,津波対応,#ff00ff,compost<br>Name: Compost on-the-go<br>Address: 116th & Lexington Ave - NW Corner
中央図書館,https://www.grownyc.org/compost-go,中央,神戸市中央区楠町7-2-1,135.17415,34.68562,土砂対応,#ff00ff,compost<br>Name: Compost on-the-go<br>Address: 145th & Edgecombe Ave - NE Corner (Jackie Robinson Park Entrance)
湊翔楠中学校,https://www.grownyc.org/compost-go,中央,神戸市中央区楠町4-2-5,135.17165,34.684,地震対応,#ff00ff,"compost<br>Name: Compost on-the-go<br>Address: 157th, Broadway, Riverside Drive (Ilka Tanya Payan Park)"
中央体育館,https://www.grownyc.org/compost-go,中央,神戸市中央区楠町4-1-1,135.17443,34.68279,津波対応,#ff00ff,compost<br>Name: Compost on-the-go<br>Address: 96th Street & Lexington Ave - SE Corner (Samuel Seabury Playground)
湊小学校,https://www.grownyc.org/compost-go,中央,神戸市中央区東川崎町1-4-1,135.18085,34.6769,土砂対応,#ff00ff,"compost<br>Name: Compost on-the-go<br>Address: Broadway, Riverside Drive, Dyckman Street (Anne Loftus Playground/Fort Tyron Park Entrance)"
産業振興センター,https://www.grownyc.org/compost-go,中央,神戸市中央区東川崎1-8-4,135.1818,34.6806,地震対応,#ff00ff,compost<br>Name: Compost on-the-go<br>Address: Fort Washington Ave btw. 183rd & 185th - W (Bennett Park Entrance)
こうべまちづくり会館,https://www.grownyc.org/compost-go,中央,神戸市中央区元町通4-2-14,135.18291,34.6861,津波対応,#ff00ff,"compost<br>Name: Dag Hammarskjold Plaza Greenmarket<br>Address: East 47 St at 2 Ave,New York,NY, 10017"
義務教育学校港島学園,https://www.hudsonriverpark.org/,中央,神戸市中央区港島中町3-2-2,135.2141,34.66966,土砂対応,#ff00ff,compost<br>Name: Hudson River Park's 14th Street Park at 10th Ave.<br>Address: 14th Street Park at southwest corner of 15th St. and 10th Ave
神戸国際展示場,https://www.hudsonriverpark.org/,中央,神戸市中央区港島中町6-11-1,135.21261,34.66373,地震対応,#ff00ff,compost<br>Name: Hudson River Park's Chelsea Waterside Park<br>Address: Chelsea Waterside Park at 23rd St. and 11th Ave entrance
ワールド記念ホール,https://www.hudsonriverpark.org/,中央,神戸市中央区港島中町6-12-2,135.21017,34.66399,土砂対応,#ff00ff,compost<br>Name: Hudson River Park's Pier<br>Address: Pier 76 at 12th Ave between 30th St and 33rd St in Hudson River Park's Compost Center
ポートアイランドスポーツセンター,https://www.hudsonriverpark.org/,中央,神戸市中央区港島中町6-12-1,135.21074,34.66311,地震対応,#ff00ff,compost<br>Name: Hudson River Park's Pier 25 at N. Moore St.<br>Address: Pier 25 at N. Moore St. near kid's playground
バンドー神戸青少年科学館,https://www.hudsonriverpark.org/,中央,神戸市中央区港島中町7-7-6,135.21828,34.666,津波対応,#ff00ff,compost<br>Name: Hudson River Park's Pier 40 at W. Houston St.<br>Address: Pier 40 at Houston St. near dog park
神戸学院大学,https://www.hudsonriverpark.org/,中央,神戸市中央区港島1-1-3,135.20399,34.66946,土砂対応,#ff00ff,compost<br>Name: Hudson River Park's Pier 51 at Horatio St.<br>Address: Pier 51 at Horatio St. near comfort station
神戸祇園小学校,https://www.hudsonriverpark.org/,兵庫,神戸市兵庫区下三条町11-1,135.16699,34.68791,地震対応,#ff00ff,compost<br>Name: Hudson River Park's Pier 84 at W. 44th St.<br>Address: Pier 84 at W. 44th St. near dog park
ネイチャー　スタジオ,https://www.laplazacultural.com,兵庫,神戸市兵庫区雪御所町2-18-201,135.09543,34.41232,津波対応,#ff00ff,compost<br>Name: La Plaza Cultural Community Garden<br>Address: 674 East 9th Street
建設局中央水環境センター鈴蘭台処理場,https://www.lesecologycenter.org/programs/compost/compost-drop-off-locations/,兵庫,神戸市兵庫区烏原町字譲原,135.14822,34.69842,土砂対応,#ff00ff,"compost<br>Name: Commuter Composting at 23rd Street C/E<br>Address: West 23rd Street and 8th Avenue (SW corner), New York, NY 10011"
友生支援学校,https://www.lesecologycenter.org/programs/compost/compost-drop-off-locations/,兵庫,神戸市兵庫区夢野町1-1,135.16035,34.68627,地震対応,#ff00ff,compost<br>Name: Commuter Composting at Christopher Street<br>Address: 7th Avenue and Christopher St - SW Corner
夢野中学校,https://www.lesecologycenter.org/programs/compost/compost-drop-off-locations/,兵庫,神戸市兵庫区鵯越町10-1,135.153,34.68207,津波対応,#ff00ff,"compost<br>Name: Commuter Composting at East Broadway & Rutgers Street<br>Address: East Broadway & Rutgers Street (SE corner), Manhattan"
夢野こどもホーム（一階地域交流スペース）,https://www.lesecologycenter.org/programs/compost/compost-drop-off-locations/,兵庫,神戸市兵庫区夢野町4-3-13,135.15621,34.68358,土砂対応,#ff00ff,"compost<br>Name: Commuter Composting at Grand Street & Clinton Street<br>Address: Grand Street & Clinton Street (SW corner), Manhattan"
夢野の丘小学校,https://www.lesecologycenter.org/programs/compost/compost-drop-off-locations/,兵庫,神戸市兵庫区東山町4-20,135.16056,34.68167,地震対応,#ff00ff,compost<br>Name: Commuter Composting Hudson Square<br>Address: 6th Avenue & Spring Street -NE Corner
会下山小学校,https://www.lesecologycenter.org/programs/compost/compost-drop-off-locations/,兵庫,神戸市兵庫区上沢通1-3-26,135.16521,34.67922,土砂対応,#ff00ff,compost<br>Name: East River Park Compost Yard<br>Address: East River Park Compost Park
湊川中学校・楠高校,https://www.lesecologycenter.org/programs/compost/compost-drop-off-locations/,兵庫,神戸市兵庫区松本通1-1-1,135.16413,34.67995,地震対応,#ff00ff,compost<br>Name: LES Ecology Center Garden<br>Address: 213 E. 7th St
神港橘高校,https://www.lesecologycenter.org/programs/compost/compost-drop-off-locations/,兵庫,神戸市兵庫区会下山町3-16-1,135.15676,34.67521,津波対応,#ff00ff,compost<br>Name: West Village Commuter Composting<br>Address: 6th Avenue and Waverly Place - SE Corner
兵庫大開小学校,,兵庫,神戸市兵庫区大開通4-1-39,135.16632,34.67367,土砂対応,#ff00ff,compost<br>Name: Carmen Pabon del Amanecer Community Garden<br>Address: 115 Avenue C
水木小学絞,,兵庫,神戸市兵庫区水木通9-1-8,135.15948,34.67036,地震対応,#ff00ff,compost<br>Name: Commuter Composting at 1st Ave and 1st St.<br>Address: First Avenue between Houston and First Street (west side)
兵庫中学校,,兵庫,神戸市兵庫区永沢町4-3-36,135.16996,34.67365,津波対応,#ff00ff,compost<br>Name: Dorothy K. McGowan Memorial Garden<br>Address: 513 West 158th Street
明親小学校,,兵庫,神戸市兵庫区須佐野通4-1-19,135.16611,34.66516,土砂対応,#ff00ff,compost<br>Name: El Sol Brilliante- Children's Garden<br>Address: 544 East 12th St
須佐野中学絞,,兵庫,神戸市兵庫区松原通1-1-44,135.16974,34.66446,地震対応,#ff00ff,compost<br>Name: Garden of Love<br>Address: 302 West 116 Street
和田岬小学校,,兵庫,神戸市兵庫区和田宮通6-1-18,135.17547,34.65515,津波対応,#ff00ff,compost<br>Name: Mobilization for Change Community Garden<br>Address: 955 Columbus Ave
兵庫工業高校,,兵庫,神戸市兵庫区和田宮通2-1-63,135.17379,34.65956,土砂対応,#ff00ff,compost<br>Name: Peach Tree Garden<br>Address: 236 East 2nd Street
浜山小学校,,兵庫,神戸市兵庫区材木町4-2,135.1662,34.65775,地震対応,#ff00ff,compost<br>Name: The Herb Garden<br>Address: 180 East 111th Street
吉田中学校,,兵庫,神戸市兵庫区吉田町1-5-1,135.17118,34.65218,土砂対応,#ff00ff,compost<br>Name: William B. Washington Memorial Garden<br>Address: 321 West 126th Street
高齢者ケアセンターひょうご,http://queensfarm.org/,兵庫,神戸市兵庫区里山町1-48,135.14093,34.69262,地震対応,#ff00ff,compost<br>Name: Queens County Farm Museum<br>Address: 73-50 Little Neck Parkway
鵯台中学校,http://www.bigreuse.org/compost/drop-off-list/,北,神戸市北区ひよどり台1-15-31,135.1194,34.69409,津波対応,#ff00ff,"compost<br>Name: Commuter Composting at Vernon Jackson 7<br>Address: Vernon Blvd & 50th Ave, Long Island City, NY 11101"
ひよどり台小学校,http://www.bigreuse.org/compost/drop-off-list/,北,神戸市北区ひよどり台3-3,135.12489,34.69784,土砂対応,#ff00ff,"compost<br>Name: Commuter Drop-Off<br>Address: 22-75 31st St, Astoria, NY 11102"
星和台中学校,http://www.bigreuse.org/compost/drop-off-list/,北,神戸市北区星和台1-6,135.12857,34.71911,地震対応,#ff00ff,"compost<br>Name: Commuter Drop-Off<br>Address: 28-60 31st St, Astoria, NY 11102"
星和台小学校,http://www.bigreuse.org/compost/drop-off-list/,北,神戸市北区星和台6-21,135.12376,34.72381,津波対応,#ff00ff,"compost<br>Name: Forest Hills Greenmarket<br>Address: South side of Queens Blvd at 70th Avenue, Queens"
鈴蘭台中学校,http://www.bigreuse.org/compost/drop-off-list/,北,神戸市北区北五葉2-10-32,135.13253,34.72937,土砂対応,#ff00ff,"compost<br>Name: Jackson Heights Greenmarket<br>Address: 34th Ave at 77th St,Queens,NY,11372"
北五葉小学校,http://www.bigreuse.org/compost/drop-off-list/,北,神戸市北区北五葉3-7-1,135.13646,34.73057,地震対応,#ff00ff,"compost<br>Name: Queens Library at Broadway<br>Address: 40-20 Broadway, Long Island City, NY, 11103"
藍那小河地域福祉センター,http://www.bigreuse.org/compost/drop-off-list/,北,神戸市北区山田町藍那字下の町77-8,135.11305,34.73451,津波対応,#ff00ff,"compost<br>Name: Queens Library at Steinway<br>Address: 21-45 31st St, Astoria, NY 11105"
君影小学校,http://www.bigreuse.org/compost/drop-off-list/,北,神戸市北区君影町1-11-13,135.13624,34.71436,土砂対応,#ff00ff,"compost<br>Name: Socrates Sculpture Park<br>Address: Broadway & Vernon Blvd, Queens, NY 11106"
南五葉小学校,http://www.bigreuse.org/compost/drop-off-list/,北,神戸市北区南五葉3-1-1,135.1336,34.72208,地震対応,#ff00ff,"compost<br>Name: Sunnyside Greenmarket<br>Address: Skillman Ave at 43rd St,Queens,NY,11104"
鈴蘭台小学校,http://www.edgemerefarm.org/,北,神戸市北区鈴蘭台南町2-14-24,135.14095,34.72536,土砂対応,#ff00ff,compost<br>Name: Edgemere Farm<br>Address: 385 Beach 45th St
小部小学校,http://www.grownyc.org/compost/locations,北,神戸市北区鈴蘭台北町3-8-1,135.14814,34.72965,地震対応,#ff00ff,"compost<br>Name: Flushing Greenmarket<br>Address: Maple Playground, Maple Avenue and Kissena Boulevard, Flushing"
小部中学校,http://www.grownyc.org/greenmarket/queens/corona,北,神戸市北区山田町小部字向井谷23-1,135.15525,34.73044,津波対応,#ff00ff,"compost<br>Name: Compost drop off Corona Greenmarket<br>Address: Corona Plaza, Roosevelt Ave at 103 Street, Queens"
小部東小学校,http://www.jhbg.org/2012/12/23/jh-scraps-a-community-composting-project,北,神戸市北区鈴蘭台北町7-11-22,135.15702,34.72775,土砂対応,#ff00ff,compost<br>Name: JH Scraps<br>Address: 35-20 69th Street
泉台小学校,https://queensbotanical.org,北,神戸市北区泉台3-1-4,135.13742,34.73841,地震対応,#ff00ff,"compost<br>Name: Compost drop off 63rd Dr. M/R<br>Address: 96-14 Queens Blvd, Rego Park, NY 11374"
桜の宮小学校,https://queensbotanical.org,北,神戸市北区若葉台1-3-15,135.15442,34.74059,津波対応,#ff00ff,"compost<br>Name: Compost drop off Grand Ave Newtown M/R<br>Address: 86-51 Broadway, Elmhurst, NY 11373"
桜の宮中学校,https://queensbotanical.org,北,神戸市北区大脇台6-1,135.15986,34.73812,土砂対応,#ff00ff,"compost<br>Name: Queens Botanical Garden Drop-Off<br>Address: 42-80 Crommelin Avenue, Flushing, NY 11355, Parking Garden at QBG"
大原中学校,https://www.brooklyngrangefarm.com,北,神戸市北区大原1-19,135.1439,34.74593,地震対応,#ff00ff,compost<br>Name: Compost drop off Brooklyn Grange<br>Address: 37-19 Northern Blvd Roof
桂木小学校,https://www.hellgatefarm.com/,北,神戸市北区桂木1-2-5,135.14575,34.74782,津波対応,#ff00ff,compost<br>Name: Hellgate Farm<br>Address: 14-33 30th Drive
甲緑小学校,https://www.rwalliance.org,北,神戸市北区緑町7-12-10,135.15018,34.74457,土砂対応,#ff00ff,compost<br>Name: Rockaway Waterfront Alliance R.I.S.E.<br>Address: 5803 Rockaway Beach Blvd.
箕谷小学校,,北,神戸市北区松が枝町1-11,135.14947,34.7583,地震対応,#ff00ff,compost<br>Name: Commuter Composting at 21st Street F train<br>Address: NW Corner of 21st street at 41st Ave
広陵小学校,,北,神戸市北区筑紫が丘2-9-1,135.16521,34.74849,土砂対応,#ff00ff,compost<br>Name: Commuter Composting at Grand Street & Clinton Street <br>Address: Briarwood E/F Subway Station Entrance (North side of Queens Boulevard)
広陵中学校,,北,神戸市北区小倉台5-1-1,135.16986,34.74942,地震対応,#ff00ff,"compost<br>Name: Commuter Composting at Kew Gardens E/F<br>Address: Kew Gardens Road between 80 Road and 81 Avenue, Kew Gardens, 11415"
筑紫が丘小学校,,北,神戸市北区筑紫が丘3-4-1,135.16268,34.74425,津波対応,#ff00ff,compost<br>Name: St. James Compost<br>Address: 86-02 Broadway
山田中学校,,北,神戸市北区山田町下谷上字宮ノ前15,135.15656,34.76311,土砂対応,#ff00ff,compost<br>Name: The Compost Collective<br>Address: 73-24 Yellowstone Blvd.
谷上小学校,http://snug-harbor.org/compost/,北,神戸市北区山田町下谷上字中上16,135.16957,34.76336,地震対応,#ff00ff,compost<br>Name: Snug Harbor Cultural Center & Botanical Garden<br>Address: Compost Demonstration Site at Snug Harbor Cultural Center & Botanical Garden 1000 Richmond Terrace
山田小学校,http://www.grownyc.org/compost/locations,北,神戸市北区山田町中字長尾サ1,135.13158,34.76554,津波対応,#ff00ff,"compost<br>Name: St. George Greenmarket<br>Address: St Marks Pl & Hyatt St Staten Island, NY 10301"
花山小学校,http://www.grownyc.org/compost/locations,北,神戸市北区花山東町3-1,135.18512,34.76521,土砂対応,#ff00ff,"compost<br>Name: Staten Island Mall Greenmarket<br>Address: Staten Island Mall, Marsh Ave & Ring Rd, Staten Island, NY 10314"
大池中学校,https://www.facebook.com/pg/Olivet-Heavenly-Harvest-304779173301345/about/,北,神戸市北区西大池2-24-3,135.19597,34.77223,地震対応,#ff00ff,compost<br>Name: Olivet Heavenly Harvest<br>Address: 97 Myrtle Avenue
大池小学校,http://satruck.org/donate-goods,北,神戸市北区西大池2-24-1,135.1986,34.77219,津波対応,#0000ff,electronics<br>Name: SALVATION ARMY THRIFT STORE<br>Address: 1294 SOUTHERN BLVD BRONX NY 10459
六甲が丘会館,http://satruck.org/donate-goods,北,神戸市北区東大池1-5-8,135.20001,34.7795,土砂対応,#0000ff,electronics<br>Name: SALVATION ARMY THRIFT STORE<br>Address: 2359 JEROME AVE BRONX NY 10468
唐櫃中学校,http://satruck.org/donate-goods,北,神戸市北区唐櫃台4-36-1,135.21168,34.78499,地震対応,#0000ff,electronics<br>Name: SALVATION ARMY THRIFT STORE<br>Address: 2582 3 AVE BRONX NY 10454
唐櫃小学校,http://satruck.org/donate-goods,北,神戸市北区唐櫃台2-39-1,135.21405,34.78984,土砂対応,#0000ff,electronics<br>Name: SALVATION ARMY THRIFT STORE<br>Address: 4109 PARK AVE BRONX NY 10457
神戸北高校,http://www.bestbuy.com/recycle,北,神戸市北区唐櫃台2-41-1,135.21668,34.78846,地震対応,#0000ff,electronics<br>Name: BEST BUY<br>Address: 402 E FORDHAM RD BRONX NY 10458
有馬小学校,http://www.bestbuy.com/recycle,北,神戸市北区有馬町1274,135.24847,34.80094,津波対応,#0000ff,electronics<br>Name: BEST BUY<br>Address: 610 EXTERIOR ST BRONX NY 10451
五社ふれあい館,http://www.staples.com/recycle,北,神戸市北区有野町有野878-1,135.21539,34.80516,土砂対応,#0000ff,electronics<br>Name: STAPLES<br>Address: 2040 WHITE PLAINS RD BRONX NY 10462
有馬中学校,http://www.staples.com/recycle,北,神戸市北区有野台7-18,135.22647,34.80964,地震対応,#0000ff,electronics<br>Name: STAPLES<br>Address: 330-340 BAYCHESTER AVE BRONX NY 10475
ありの台小学校,http://www.staples.com/recycle,北,神戸市北区有野台5-2,135.22993,34.81411,津波対応,#0000ff,electronics<br>Name: STAPLES<br>Address: 5680 BROADWAY BRONX NY 10463
藤原台小学校,https://www.goodwillnynj.org/donate-goods,北,神戸市北区藤原台南町1-13-1,135.20813,34.8128,土砂対応,#0000ff,electronics<br>Name: GOODWILL THRIFT SHOP<br>Address: 361 E 149 ST BRONX NY 10455
有野小学校,http://satruck.org/donate-goods,北,神戸市北区藤原台中町3-17-1,135.21786,34.82067,地震対応,#0000ff,electronics<br>Name: SALVATION ARMY THRIFT STORE<br>Address: 176 BEDFORD AVE BROOKLYN NY 11211
有野中学校,http://satruck.org/donate-goods,北,神戸市北区藤原台中町5-2-1,135.21412,34.82206,津波対応,#0000ff,electronics<br>Name: SALVATION ARMY THRIFT STORE<br>Address: 22 QUINCY ST BROOKLYN NY 11238
有野北中学校,http://satruck.org/donate-goods,北,神戸市北区藤原台北町6-4-1,135.22313,34.82976,土砂対応,#0000ff,electronics<br>Name: SALVATION ARMY THRIFT STORE<br>Address: 3718 NOSTRAND AVE BROOKLYN NY 11235
ＪＡ兵庫六甲（神戸北文化センター）,http://satruck.org/donate-goods,北,神戸市北区有野中町2-12-13,135.22618,34.82663,地震対応,#0000ff,electronics<br>Name: SALVATION ARMY THRIFT STORE<br>Address: 436 ATLANTIC AVE BROOKLYN NY 11217
西山小学校,http://satruck.org/donate-goods,北,神戸市北区西山1-67,135.21828,34.83888,土砂対応,#0000ff,electronics<br>Name: SALVATION ARMY THRIFT STORE<br>Address: 6822 3 AVE BROOKLYN NY 11220
西二郎集会所,http://satruck.org/donate-goods,北,神戸市北区有野町有野3556-1,135.22702,34.83799,地震対応,#0000ff,electronics<br>Name: SALVATION ARMY THRIFT STORE<br>Address: 981 MANHATTAN AVE BROOKLYN NY 11222
道場小学校,http://www.bestbuy.com/recycle,北,神戸市北区道場町塩田1460,135.23249,34.86957,津波対応,#0000ff,electronics<br>Name: BEST BUY<br>Address: 369 GATEWAY DR BROOKLYN NY 11239
生野自治会館,http://www.bestbuy.com/recycle,北,神戸市北区道場町生野285,135.25097,34.86629,土砂対応,#0000ff,electronics<br>Name: BEST BUY<br>Address: 5102 AVE U BROOKLYN NY 11234
平田自治会館,http://www.bestbuy.com/recycle,北,神戸市北区道場町平田553,135.23908,34.85146,地震対応,#0000ff,electronics<br>Name: BEST BUY<br>Address: 625 ATLANTIC AVE BROOKLYN NY 11217
生野高原安心コミュニティプラザ,http://www.bestbuy.com/recycle,北,神戸市北区道場町生野1172-1022,135.27097,34.8482,津波対応,#0000ff,electronics<br>Name: BEST BUY<br>Address: 8923 BAY PKWY BROOKLYN NY 11214
八多小・中学校,http://www.staples.com/recycle,北,神戸市北区八多町附物876,135.19566,34.8226,土砂対応,#0000ff,electronics<br>Name: STAPLES<br>Address: 1011 FLATBUSH AVE BROOKLYN NY 11226
中公民館,http://www.staples.com/recycle,北,神戸市北区八多町中1177,135.21661,34.84936,地震対応,#0000ff,electronics<br>Name: STAPLES<br>Address: 1760 UTICA AVE BROOKLYN NY 11234
大沢小・中学校,http://www.staples.com/recycle,北,神戸市北区大沢町中大沢976,135.16518,34.85508,津波対応,#0000ff,electronics<br>Name: STAPLES<br>Address: 1880 CONEY ISLAND AVE BROOKLYN NY 11230
上大沢ふれあい会館,http://www.staples.com/recycle,北,神戸市北区大沢町上大沢3080,135.18369,34.84888,土砂対応,#0000ff,electronics<br>Name: STAPLES<br>Address: 1949 STILLWELL BROOKLYN NY 11223
長尾小学校,http://www.staples.com/recycle,北,神戸市北区上津台3-4-1,135.19448,34.86571,地震対応,#0000ff,electronics<br>Name: STAPLES<br>Address: 2892 OCEAN AVE BROOKLYN NY 11235
岩谷公会堂,http://www.staples.com/recycle,北,神戸市北区長尾町上津4270,135.17338,34.88361,土砂対応,#0000ff,electronics<br>Name: STAPLES<br>Address: 348 4 AVE BROOKLYN NY 11215
鹿の子台小学校,http://www.staples.com/recycle,北,神戸市北区鹿の子台北町6-34-1,135.21833,34.861,地震対応,#0000ff,electronics<br>Name: STAPLES<br>Address: 409 GATEWAY DRIVE BROOKLYN NY 11239
北神戸中学校,http://www.staples.com/recycle,北,神戸市北区鹿の子台北町2-8-1,135.22287,34.86292,津波対応,#0000ff,electronics<br>Name: STAPLES<br>Address: 535 MORGAN AVE BROOKLYN NY 11222
好徳小学校,http://www.staples.com/recycle,北,神戸市北区淡河町野瀬487,135.1502,34.82246,土砂対応,#0000ff,electronics<br>Name: STAPLES<br>Address: 9319 5 AVE BROOKLYN NY 11209
淡河中学校,https://www.goodwillnynj.org/donate-goods,北,神戸市北区淡河町行原字中沢179-2,135.12406,34.81955,地震対応,#0000ff,electronics<br>Name: GOODWILL THRIFT SHOP<br>Address: 1100 FULTON ST BROOKLYN NY 11238
淡河小学校,https://www.goodwillnynj.org/donate-goods,北,神戸市北区淡河町萩原524,135.10215,34.81633,津波対応,#0000ff,electronics<br>Name: GOODWILL THRIFT SHOP<br>Address: 258 LIVINGSTON ST BROOKLYN NY 11201
室内小学校,https://www.lesecologycenter.org/programs/ewaste/ewaste-faq/,長田,神戸市長田区前原町1-17-1,135.15436,34.67347,土砂対応,#0000ff,electronics<br>Name: LOWER EAST SIDE ECOLOGY CENTER<br>Address: 469 PRESIDENT ST BROOKLYN NY 11215
長田公民館,http://satruck.org/donate-goods,長田,神戸市長田区四番町4-51,135.15455,34.66976,地震対応,#0000ff,electronics<br>Name: SALVATION ARMY THRIFT STORE<br>Address: 112 4 AVE NEW YORK NY 10003
夢野台高校,http://satruck.org/donate-goods,長田,神戸市長田区房王寺町2-1-1,135.15347,34.67708,津波対応,#0000ff,electronics<br>Name: SALVATION ARMY THRIFT STORE<br>Address: 208 8 AVE NEW YORK NY 10011
名倉小学校,http://satruck.org/donate-goods,長田,神戸市長田区房王寺町4-7-15,135.14793,34.67995,土砂対応,#0000ff,electronics<br>Name: SALVATION ARMY THRIFT STORE<br>Address: 212 E 23 ST NEW YORK NY 10010
丸山中学校,http://satruck.org/donate-goods,長田,神戸市長田区大丸町2-17-1,135.14873,34.678,地震対応,#0000ff,electronics<br>Name: SALVATION ARMY THRIFT STORE<br>Address: 26 E 125 ST NEW YORK NY 10035
雲雀丘中学校,http://satruck.org/donate-goods,長田,神戸市長田区雲雀ヶ丘1-1-1,135.13431,34.69152,土砂対応,#0000ff,electronics<br>Name: SALVATION ARMY THRIFT STORE<br>Address: 268 W 96 ST NEW YORK NY 10025
丸山ひばり小学校,http://satruck.org/donate-goods,長田,神戸市長田区西丸山町3-2-1,135.13759,34.68644,地震対応,#0000ff,electronics<br>Name: SALVATION ARMY THRIFT STORE<br>Address: 536 W 46 ST NEW YORK NY 10036
総合療育センター,http://www.bestbuy.com/recycle,長田,神戸市長田区丸山町2-3-50,135.14008,34.68337,津波対応,#0000ff,electronics<br>Name: BEST BUY<br>Address: 1280 LEXINGTON AVE NEW YORK NY 10028
丸山コミュニティ・センター,http://www.bestbuy.com/recycle,長田,神戸市長田区西丸山町1-7-5,135.14091,34.68599,土砂対応,#0000ff,electronics<br>Name: BEST BUY<br>Address: 1880 BROADWAY NEW YORK NY 10023
宮川小学校,http://www.bestbuy.com/recycle,長田,神戸市長田区長田町4-1-1,135.14729,34.67223,地震対応,#0000ff,electronics<br>Name: BEST BUY<br>Address: 52 E 14 ST NEW YORK NY 10003
池田小学校,http://www.bestbuy.com/recycle,長田,神戸市長田区池田上町19,135.14493,34.66788,津波対応,#0000ff,electronics<br>Name: BEST BUY<br>Address: 529 5 AVE NEW YORK NY 10017
西代中学校,http://www.bestbuy.com/recycle,長田,神戸市長田区上池田2-4-1,135.13967,34.66818,土砂対応,#0000ff,electronics<br>Name: BEST BUY<br>Address: 60 W 23 ST NEW YORK NY 10010
長田高校,http://www.bestbuy.com/recycle,長田,神戸市長田区池田谷町2-5,135.14353,34.67024,地震対応,#0000ff,electronics<br>Name: BEST BUY<br>Address: 622 BROADWAY NEW YORK NY 10012
蓮池小学校,http://www.staples.com/recycle,長田,神戸市長田区大谷町1-1-10,135.14321,34.66244,津波対応,#0000ff,electronics<br>Name: STAPLES<br>Address: 105 W 125 ST NEW YORK NY 10027
神戸常盤大学,http://www.staples.com/recycle,長田,神戸市長田区大谷町2-6-2,135.14118,34.6655,土砂対応,#0000ff,electronics<br>Name: STAPLES<br>Address: 1065 6 AVE NEW YORK NY 10018
長田小学校,http://www.staples.com/recycle,長田,神戸市長田区西山町2-4-1,135.14288,34.67251,地震対応,#0000ff,electronics<br>Name: STAPLES<br>Address: 1293-1311 BROADWAY NEW YORK NY 10001
高取台中学校,http://www.staples.com/recycle,長田,神戸市長田区高取山町1-1-1,135.13724,34.67138,土砂対応,#0000ff,electronics<br>Name: STAPLES<br>Address: 16 E 34 ST NEW YORK NY 10016
育英高校,http://www.staples.com/recycle,長田,神戸市長田区長尾町2-1-15,135.13481,34.66848,地震対応,#0000ff,electronics<br>Name: STAPLES<br>Address: 2248 BROADWAY NEW YORK NY 10024
五位の池小学校,http://www.staples.com/recycle,長田,神戸市長田区五位ノ池町2-3-1,135.13635,34.66607,津波対応,#0000ff,electronics<br>Name: STAPLES<br>Address: 390 6 AVE NEW YORK NY 10011
御蔵小学校,http://www.staples.com/recycle,長田,神戸市長田区一番町4-1,135.15504,34.66637,土砂対応,#0000ff,electronics<br>Name: STAPLES<br>Address: 425 PARK AVE NEW YORK NY 10022
真野小学校,http://www.staples.com/recycle,長田,神戸市長田区苅藻通3-4-32,135.15408,34.65703,地震対応,#0000ff,electronics<br>Name: STAPLES<br>Address: 4320 BROADWAY NEW YORK NY 10033
長田中学校,http://www.staples.com/recycle,長田,神戸市長田区真野町8-1,135.15311,34.66141,津波対応,#0000ff,electronics<br>Name: STAPLES<br>Address: 442 5 AVE NEW YORK NY 10018
長田南小学校,http://www.staples.com/recycle,長田,神戸市長田区神楽町1-3-1,135.14985,34.66184,土砂対応,#0000ff,electronics<br>Name: STAPLES<br>Address: 500 8 AVE NEW YORK NY 10018
駒ヶ林中学校,http://www.staples.com/recycle,長田,神戸市長田区若松町7-1-23,135.14346,34.65514,地震対応,#0000ff,electronics<br>Name: STAPLES<br>Address: 574 2 AVE NEW YORK NY 10016
真陽小学校,http://www.staples.com/recycle,長田,神戸市長田区二葉町1-5-5,135.15129,34.6555,津波対応,#0000ff,electronics<br>Name: STAPLES<br>Address: 5-9 UNION SQUARE W NEW YORK NY 10003
ふたば学舎,http://www.staples.com/recycle,長田,神戸市長田区二葉町7-1-18,135.14626,34.65177,土砂対応,#0000ff,electronics<br>Name: STAPLES<br>Address: 641 6 AVE NEW YORK NY 10011
駒ケ林小学校,http://www.staples.com/recycle,長田,神戸市長田区野田町6-1-16,135.14146,34.65003,地震対応,#0000ff,electronics<br>Name: STAPLES<br>Address: 675 3 AVE NEW YORK NY 10017
若宮小学校,http://www.staples.com/recycle,須磨,神戸市須磨区若宮町2-1-21,135.1315,34.64634,土砂対応,#0000ff,electronics<br>Name: STAPLES<br>Address: 769 BROADWAY NEW YORK NY 10003
鷹取中学校,http://www.staples.com/recycle,須磨,神戸市須磨区青葉町3-1-1,135.1326,34.64795,地震対応,#0000ff,electronics<br>Name: STAPLES<br>Address: 776 8 AVE NEW YORK NY 10036
南須磨公民館,https://www.goodwillnynj.org/donate-goods,須磨,神戸市須磨区青葉町2-2-3,135.13332,34.64882,津波対応,#0000ff,electronics<br>Name: GOODWILL GREENWICH VILLAGE BOUTIQUE<br>Address: 44 W 8 ST NEW YORK NY 10011
西須磨小学校,https://www.goodwillnynj.org/donate-goods,須磨,神戸市須磨区行幸町3-4-18,135.12042,34.64666,土砂対応,#0000ff,electronics<br>Name: GOODWILL THRIFT SHOP<br>Address: 103 W 25 ST NEW YORK NY 10001
須磨一の谷プラザ,https://www.goodwillnynj.org/donate-goods,須磨,神戸市須磨区一ノ谷町5-2-1,135.10609,34.64118,地震対応,#0000ff,electronics<br>Name: GOODWILL THRIFT SHOP<br>Address: 157 W 72 ST NEW YORK NY 10023
北須磨小学校,https://www.goodwillnynj.org/donate-goods,須磨,神戸市須磨区離宮西町2-1-1,135.11527,34.65265,津波対応,#0000ff,electronics<br>Name: GOODWILL THRIFT SHOP<br>Address: 1704 2 AVE NEW YORK NY 10128
だいち小学校,https://www.goodwillnynj.org/donate-goods,須磨,神戸市須磨区大池町5-15-1,135.13428,34.65426,土砂対応,#0000ff,electronics<br>Name: GOODWILL THRIFT SHOP<br>Address: 217 W 79 ST NEW YORK NY 10024
太田中学校,https://www.goodwillnynj.org/donate-goods,須磨,神戸市須磨区大黒町5-1-1,135.1329,34.65766,地震対応,#0000ff,electronics<br>Name: GOODWILL THRIFT SHOP<br>Address: 2196 5 AVE NEW YORK NY 10037
東須磨小学校,https://www.goodwillnynj.org/donate-goods,須磨,神戸市須磨区堀池町1‐2-1,135.12765,34.65481,津波対応,#0000ff,electronics<br>Name: GOODWILL THRIFT SHOP<br>Address: 220 E 23 ST NEW YORK NY 10010
須磨体育館,https://www.goodwillnynj.org/donate-goods,須磨,神戸市須磨区中島町1-2-2,135.12897,34.65075,土砂対応,#0000ff,electronics<br>Name: GOODWILL THRIFT SHOP<br>Address: 2231 3 AVE NEW YORK NY 10035
飛松中学校,https://www.goodwillnynj.org/donate-goods,須磨,神戸市須磨区大手町8-4-25,135.12573,34.65827,地震対応,#0000ff,electronics<br>Name: GOODWILL THRIFT SHOP<br>Address: 512 181 ST NEW YORK NY 10033
高倉台小学校,http://satruck.org/donate-goods,須磨,神戸市須磨区高倉台4-1-1,135.10412,34.65626,土砂対応,#0000ff,electronics<br>Name: SALVATION ARMY THRIFT STORE<br>Address: 14815 ARCHER AVE JAMAICA NY 11435
高倉中学校,http://satruck.org/donate-goods,須磨,神戸市須磨区高倉台1-8-1,135.10744,34.65366,地震対応,#0000ff,electronics<br>Name: SALVATION ARMY THRIFT STORE<br>Address: 3402 STEINWAY ST LONG ISLAND CITY NY 11101
板宿小学校,http://satruck.org/donate-goods,須磨,神戸市須磨区菊池町1-1-1,135.13313,34.66307,津波対応,#0000ff,electronics<br>Name: SALVATION ARMY THRIFT STORE<br>Address: 3911 61 ST WOODSIDE NY 11377
多井畑小学校,http://www.bestbuy.com/recycle,須磨,神戸市須磨区友が丘3-106,135.09434,34.66888,土砂対応,#0000ff,electronics<br>Name: BEST BUY<br>Address: 13107 40 RD FLUSHING NY 11354
友が丘中学校,http://www.bestbuy.com/recycle,須磨,神戸市須磨区友が丘7-283-1,135.0995,34.67313,地震対応,#0000ff,electronics<br>Name: BEST BUY<br>Address: 5001 NORTHERN BLVD LONG ISLAND CITY NY 11101
多井畑自治会館,http://www.bestbuy.com/recycle,須磨,神戸市須磨区多井畑字東所22,135.09317,34.66088,津波対応,#0000ff,electronics<br>Name: BEST BUY<br>Address: 8801 QUEENS BLVD ELMHURST NY 11373
横尾小学校,http://www.staples.com/recycle,須磨,神戸市須磨区横尾5-3,135.11157,34.67043,土砂対応,#0000ff,electronics<br>Name: STAPLES<br>Address: 10234 ATLANTIC AVE OZONE PARK NY 11416
横尾中学校,http://www.staples.com/recycle,須磨,神戸市須磨区横尾2-1-2,135.11575,34.67282,地震対応,#0000ff,electronics<br>Name: STAPLES<br>Address: 10716 71 AVE FOREST HILLS NY 11375
妙法寺小学校,http://www.staples.com/recycle,須磨,神戸市須磨区妙法寺字桜界地106-1,135.11721,34.67609,津波対応,#0000ff,electronics<br>Name: STAPLES<br>Address: 13401 20 AVE COLLEGE POINT NY 11356
神戸星城高校,http://www.staples.com/recycle,須磨,神戸市須磨区緑ヶ丘1-12-1,135.11626,34.68201,土砂対応,#0000ff,electronics<br>Name: STAPLES<br>Address: 20934 NORTHERN BLVD BAYSIDE NY 11361
南落合小学校,http://www.staples.com/recycle,須磨,神戸市須磨区南落合3-11-1,135.10147,34.67631,地震対応,#0000ff,electronics<br>Name: STAPLES<br>Address: 2441 31 ST ASTORIA NY 11102
竜が台小学校,http://www.staples.com/recycle,須磨,神戸市須磨区竜が台6-15-1,135.09116,34.67454,土砂対応,#0000ff,electronics<br>Name: STAPLES<br>Address: 5110 BROADWAY WOODSIDE NY 11377
竜が台中学校,http://www.staples.com/recycle,須磨,神戸市須磨区竜が台4-1,135.08822,34.67559,地震対応,#0000ff,electronics<br>Name: STAPLES<br>Address: 5812 QUEENS BLVD WOODSIDE NY 11377
菅の台小学校,http://www.staples.com/recycle,須磨,神戸市須磨区菅の台4-3-2,135.0837,34.67219,津波対応,#0000ff,electronics<br>Name: STAPLES<br>Address: 6040 FRESH POND RD MASPETH NY 11378
花谷小学校,http://www.staples.com/recycle,須磨,神戸市須磨区東落合1-4-1,135.1013,34.68007,土砂対応,#0000ff,electronics<br>Name: STAPLES<br>Address: 6135 JUNCTION BLVD REGO PARK NY 11374
東落合中学校,http://www.staples.com/recycle,須磨,神戸市須磨区東落合2-15-1,135.09945,34.6824,地震対応,#0000ff,electronics<br>Name: STAPLES<br>Address: 9030 METROPOLITAN AVE REGO PARK NY 11374
西落合小学校,http://www.staples.com/recycle,須磨,神戸市須磨区西落合7-1-3,135.08923,34.68194,津波対応,#0000ff,electronics<br>Name: STAPLES<br>Address: 9130 VAN WYCK EXPY RICHMOND HILL NY 11418
北須磨文化センター,http://www.staples.com/recycle,須磨,神戸市須磨区中落合3-1-2,135.09544,34.68394,土砂対応,#0000ff,electronics<br>Name: STAPLES<br>Address: 9318 ROOSEVELT AVE JACKSON HEIGHTS NY 11372
西落合中学校,https://www.goodwillnynj.org/donate-goods,須磨,神戸市須磨区西落合4-1-1,135.08246,34.68514,地震対応,#0000ff,electronics<br>Name: GOODWILL OUTLET CENTER<br>Address: 4747 VAN DAM ST LONG ISLAND CITY NY 11101
須磨翔風高校,https://www.goodwillnynj.org/donate-goods,須磨,神戸市須磨区西落合1-1-5,135.08879,34.67799,津波対応,#0000ff,electronics<br>Name: GOODWILL THRIFT SHOP<br>Address: 3236 STEINWAY ST ASTORIA NY 11103
若草小学校,http://www.bestbuy.com/recycle,須磨,神戸市須磨区若草町1-13,135.11487,34.68764,土砂対応,#0000ff,electronics<br>Name: BEST BUY<br>Address: 2795 RICHMOND AVE STATEN ISLAND NY 10314
須磨北中学校,http://www.staples.com/recycle,須磨,神戸市須磨区東白川台5-1-1,135.11021,34.69203,地震対応,#0000ff,electronics<br>Name: STAPLES<br>Address: 1520 FOREST AVE STATEN ISLAND NY 10302
東落合小学校,http://www.staples.com/recycle,須磨,神戸市須磨区東落合2-18-1,135.10097,34.68523,土砂対応,#0000ff,electronics<br>Name: STAPLES<br>Address: 1885 HYLAN BLVD STATEN ISLAND NY 10306
松尾小学校,http://www.staples.com/recycle,須磨,神戸市須磨区北落合2-13-1,135.09172,34.68662,地震対応,#0000ff,electronics<br>Name: STAPLES<br>Address: 2535 RICHMOND AVE STATEN ISLAND NY 10314
神の谷小学校,https://www1.nyc.gov/assets/dsny/site/services/harmful-products/special-waste-drop-offs,須磨,神戸市須磨区神の谷5-1-1,135.08546,34.6885,津波対応,#FF0000,hazardous waste recycling<br>Name: DSNY Special Waste Drop-Off Site<br>Address: Hunts Point Ave
白川小学校,https://www1.nyc.gov/assets/dsny/site/services/harmful-products/special-waste-drop-offs,須磨,神戸市須磨区白川台7-3-2,135.1006,34.69608,土砂対応,#FF0000,hazardous waste recycling<br>Name: DSNY Special Waste Drop-Off Site<br>Address: 459 N. Henry St
白川台中学校,https://www1.nyc.gov/assets/dsny/site/services/harmful-products/special-waste-drop-offs,須磨,神戸市須磨区白川台1-25-2,135.09644,34.69275,地震対応,#FF0000,hazardous waste recycling<br>Name: DSNY Special Waste Drop-Off Site<br>Address: South St & Pike St
塩屋小学校,https://www1.nyc.gov/assets/dsny/site/services/harmful-products/special-waste-drop-offs,垂水,神戸市垂水区塩屋町3-18-1,135.08132,34.63799,津波対応,#FF0000,hazardous waste recycling<br>Name: DSNY Special Waste Drop-Off Site<br>Address: 120-15 31 Ave
塩屋中学校,https://www1.nyc.gov/assets/dsny/site/services/harmful-products/special-waste-drop-offs,垂水,神戸市垂水区塩屋町字大谷,135.07712,34.64393,土砂対応,#FF0000,hazardous waste recycling<br>Name: DSNY Special Waste Drop-Off Site<br>Address: 1000 West Service Rd
兵庫県自治研修所,,垂水,神戸市垂水区塩屋町5-3-1,135.07755,34.63311,地震対応,#00ff00,"plastic bag recycling<br>Name: Target<br>Address: 517 E 117th St New York, NY 10035"
塩屋北小学校,,垂水,神戸市垂水区塩屋北町4-10-1,135.09065,34.64703,津波対応,#00ff00,"plastic bag recycling<br>Name: Barnes and Noble<br>Address: 2289 Broadway, New York, NY 10024"
塩屋台自治会館,,垂水,神戸市垂水区塩屋台1-21,135.08353,34.64184,土砂対応,#824100,public recycling bin<br>Name: 227th St. Plgd<br>Address: E 227 St/Bronx River Pkway
下畑台小学校,,垂水,神戸市垂水区桃山台3-20,135.08306,34.65605,地震対応,#824100,public recycling bin<br>Name: Allerton Ballfields<br>Address: Allerton Ave & Moshulu Pkway
桃山台中学校,,垂水,神戸市垂水区桃山台4-8,135.07977,34.65792,土砂対応,#824100,public recycling bin<br>Name: Arthur Ave & E 187 St<br>Address: Arthur Ave & 187 St
下畑公会堂,,垂水,神戸市垂水区下畑町字谷川2120,135.08661,34.65271,地震対応,#824100,"public recycling bin<br>Name: Barstow Mansion<br>Address: 895 Shore Road, Pelham Bay Park"
つつじが丘小学校,,垂水,神戸市垂水区つつじが丘3-1385-79,135.07868,34.65744,津波対応,#824100,public recycling bin<br>Name: Bradley Playground<br>Address: 2001-2017 Bronx Park E
福田小学校,,垂水,神戸市垂水区乙木3-3-1,135.06657,34.64116,土砂対応,#824100,public recycling bin<br>Name: Bronx Botanical Gardens<br>Address: Visitors Service Center
東垂水小学校,,垂水,神戸市垂水区王居殿2-5-25,135.07119,34.63483,地震対応,#824100,public recycling bin<br>Name: Bronx Botanical Gardens<br>Address: Visitors Service Center
視覚特別支援学校,,垂水,神戸市垂水区城が山4-2-1,135.06928,34.6332,津波対応,#824100,public recycling bin<br>Name: Bronx Botanical Gardens<br>Address: Visitors Service Center
乙木小学校,,垂水,神戸市垂水区美山台2-1-1,135.07096,34.64033,土砂対応,#824100,public recycling bin<br>Name: Bronx Botanical Gardens<br>Address: Visitors Service Center
垂水東中学校,,垂水,神戸市垂水区青山台3-4-1,135.07219,34.64097,地震対応,#824100,public recycling bin<br>Name: Bronx County Courthouse<br>Address: 161 ST/Grand Concourse
東垂水公民館,,垂水,神戸市垂水区東垂水1-1-1,135.06843,34.63684,津波対応,#824100,public recycling bin<br>Name: Bronx County Courthouse<br>Address: 161 ST/Grand Concourse
名谷小学校,,垂水,神戸市垂水区名谷町1896,135.07099,34.66332,土砂対応,#824100,public recycling bin<br>Name: Bronx Park<br>Address: Lydig Ave & Bronx Park E
福田中学校,,垂水,神戸市垂水区名谷町字猿倉254,135.06057,34.65158,地震対応,#824100,public recycling bin<br>Name: Bronx Park Playground at Lydig<br>Address: Lydig Ave & Bronx Park E
高丸小学校,,垂水,神戸市垂水区大町2-6-9,135.06133,34.63814,土砂対応,#824100,public recycling bin<br>Name: Bronx Zoo<br>Address: Cafeteria
千鳥が丘小学校,,垂水,神戸市垂水区千鳥が丘3-10-37,135.05818,34.64334,地震対応,#824100,public recycling bin<br>Name: Bronx Zoo<br>Address: Entrance to Cafeteria
垂水小学校,,垂水,神戸市垂水区日向2-4-6,135.05588,34.63158,津波対応,#824100,public recycling bin<br>Name: Bryant Hill Community Garden<br>Address: Bryant Avenue Bet. Seneca and Garrison Aves.
垂水年金会館,,垂水,神戸市垂水区平磯1-2-5,135.05901,34.62808,土砂対応,#824100,public recycling bin<br>Name: Burke Bridge<br>Address: Burke Bridge
垂水体育館,,垂水,神戸市垂水区平磯1-1-56,135.06014,34.62628,地震対応,#824100,public recycling bin<br>Name: College of Mt. St. Vincent<br>Address: In front of Alumnae Hall
霞ヶ丘小学校,,垂水,神戸市垂水区霞ヶ丘4-6-16,135.04276,34.63337,津波対応,#824100,public recycling bin<br>Name: College of Mt. St. Vincent<br>Address: In front of Cardinal Spellman Hall
歌敷山中学校,,垂水,神戸市垂水区歌敷山2-4-1,135.04126,34.63639,土砂対応,#824100,public recycling bin<br>Name: Concrete Plant Park<br>Address: Bronx River bet. Westchster Av and Bruckner Blvd
東舞子小学校,,垂水,神戸市垂水区舞子台4-10-1,135.0365,34.63935,地震対応,#824100,public recycling bin<br>Name: Crotona Park <br>Address: 1700 Crotona Ave
舞子小学校,,垂水,神戸市垂水区西舞子4-7-43,135.03037,34.64379,津波対応,#824100,public recycling bin<br>Name: Crotona Park <br>Address: 1700 Crotona Ave
西舞子小学校,,垂水,神戸市垂水区狩口台3-1-2,135.03074,34.64973,土砂対応,#824100,public recycling bin<br>Name: Crotona Park <br>Address: 1700 Crotona Ave
舞子中学校,,垂水,神戸市垂水区狩口台3-1-1,135.02981,34.64967,地震対応,#824100,public recycling bin<br>Name: Crotona Park <br>Address: 1700 Crotona Ave
神陵台小学校,,垂水,神戸市垂水区神陵台3-1-1,135.03406,34.65989,土砂対応,#824100,public recycling bin<br>Name: Crotona Park <br>Address: 1700 Crotona Ave
神陵台中学校,,垂水,神戸市垂水区神陵台3-1-2,135.03323,34.66014,地震対応,#824100,public recycling bin<br>Name: Crotona Park <br>Address: 1700 Crotona Ave
多聞台小学校,,垂水,神戸市垂水区多聞台3-9-29,135.04041,34.66215,津波対応,#824100,public recycling bin<br>Name: E 174 St & Manor Ave<br>Address: 174 St & Manor Ave
西脇小学校,,垂水,神戸市垂水区西脇1-8-6,135.03876,34.656,土砂対応,#824100,public recycling bin<br>Name: E 176 St & Marmion Ave<br>Address: 176 St & Marmion Ave
千代が丘小学校,,垂水,神戸市垂水区上高丸1-4-2,135.05179,34.64109,地震対応,#824100,public recycling bin<br>Name: E Gun Hill Rd & Bronxwood Ave<br>Address: Gun Hill Rd & Bronxwood Ave
神戸聴覚特別支援学校,,垂水,神戸市垂水区福田1-3-1,135.06345,34.64044,津波対応,#824100,public recycling bin<br>Name: E Tremont Ave & Bruckner Blvd<br>Address: Tremont Ave & Bruckner Blvd
垂水中学校,,垂水,神戸市垂水区上高丸1-4-1,135.0516,34.64082,土砂対応,#824100,public recycling bin<br>Name: E Tremont Ave & University Ave<br>Address: Tremont Ave & University Ave
多聞の丘小学校（旧本多聞小学校）,,垂水,神戸市垂水区本多聞4-4-1,135.04807,34.65808,地震対応,#824100,public recycling bin<br>Name: Echo Park<br>Address: 315 Echo Pl
本多聞中学校,,垂水,神戸市垂水区本多聞2-16-1,135.04608,34.6566,津波対応,#824100,public recycling bin<br>Name: Edith Community Garden<br>Address: 836 Elton Avenue 
舞多聞小学校,,垂水,神戸市垂水区舞多聞西5-11-12,135.04921,34.66687,土砂対応,#824100,public recycling bin<br>Name: El Flamboyan<br>Address: Tinton Avenue @ E. 150th Street 
多聞の丘小学校（旧多聞南小学校）,,垂水,神戸市垂水区本多聞5-2-1,135.04663,34.65287,地震対応,#824100,public recycling bin<br>Name: Family Group Garden<br>Address: 419 East 158th Street 
小束山小学校,,垂水,神戸市垂水区小束山7-868-362,135.06127,34.66649,土砂対応,#824100,public recycling bin<br>Name: Fordham University<br>Address: Grand Concourse West & Fordham Rd
星陵台中学校,,垂水,神戸市垂水区星陵台4-3-3,135.04789,34.64653,地震対応,#824100,public recycling bin<br>Name: Fordham University<br>Address: Kingsbridge Rd & Fordham Rd
星陵高校,,垂水,神戸市垂水区星陵台4-3-2,135.04958,34.64491,津波対応,#824100,public recycling bin<br>Name: Fordham University<br>Address: Main Entrance (Kazimiroff Blvd)
神戸商業高校,,垂水,神戸市垂水区星陵台4-3-1,135.04775,34.64385,土砂対応,#824100,public recycling bin<br>Name: Fordham University<br>Address: Side Entrance (E Fordham Rd & 3 Ave)
多聞東小学校,,垂水,神戸市垂水区学が丘4-1-1,135.05526,34.65863,地震対応,#824100,"public recycling bin<br>Name: French Charley Playground<br>Address: E 204 St, W/S Bronx Park"
多聞東中学校,,垂水,神戸市垂水区学が丘3-1-1,135.05422,34.65467,津波対応,#824100,public recycling bin<br>Name: Hornaday Community Garden (volky Flower Garden)<br>Address: 851 Hornaday Avenue
舞子高校,,垂水,神戸市垂水区学が丘3-2,135.05511,34.65596,土砂対応,#824100,public recycling bin<br>Name: HUB 3rd Ave<br>Address: 3 Ave & 149 St
太山寺小学校,,西,神戸市西区伊川谷町前開860,135.05534,34.69625,地震対応,#824100,public recycling bin<br>Name: Hunt's Point<br>Address: Hunt's Point Ave Btwn. Spofford Ave & Bryant Ave
伊川谷小学校,,西,神戸市西区北別府3-3-1,135.01239,34.67194,津波対応,#824100,public recycling bin<br>Name: Hunt's point Riverside Park- Plgd - Parks<br>Address: Lafayette Ave & Edgewater Rd
長坂小学校,,西,神戸市西区伊川谷町長坂910-1,135.03754,34.66905,土砂対応,#824100,public recycling bin<br>Name: Isla Verde Garden<br>Address: 625 Wales Avenue 
長坂中学校,,西,神戸市西区伊川谷町長坂841-1,135.03742,34.67071,地震対応,#824100,public recycling bin<br>Name: Jardin de las Rosas<br>Address: 15 Buchanan Place
伊川谷高校,,西,神戸市西区伊川谷町長坂910-5,135.03569,34.67094,土砂対応,#824100,public recycling bin<br>Name: Joyce Kilmer<br>Address: E 164 St Btwn. Grand Concourse & Walton Ave
有瀬小学校,,西,神戸市西区伊川谷町有瀬1137-1,135.01864,34.66413,地震対応,#824100,public recycling bin<br>Name: Joyce Kilmer<br>Address: E 164 St Btwn. Grand Concourse & Walton Ave
伊川谷中学校,,西,神戸市西区伊川谷町上脇1005-2,135.0193,34.67796,津波対応,#824100,public recycling bin<br>Name: Kingsbridge Heights Community Center<br>Address: 3101 Kingsbridge Ave
小寺小学校,,西,神戸市西区学園西町5-5,135.05455,34.68373,土砂対応,#824100,public recycling bin<br>Name: Las Casitas Communitiy Garden<br>Address: 1126-1140 Woodycrest Avenue 
兵庫県立大学（神戸商科キャンパス）,,西,神戸市西区学園西町8-2-1,135.05208,34.67825,地震対応,#824100,public recycling bin<br>Name: Little Green Garden (3) Large lower expanse<br>Address: E 160th St and Elton Ave
東町小学校,,西,神戸市西区学園東町5-5,135.06484,34.68441,津波対応,#824100,public recycling bin<br>Name: Mill Pond<br>Address: Mill Pond Park
太山寺中学校,,西,神戸市西区学園東町2-2,135.06058,34.68467,土砂対応,#824100,public recycling bin<br>Name: Mullaly<br>Address: E 165 St Btwn. Jerome Ave & River Ave
神戸市外国語大学,,西,神戸市西区学園東町9-1,135.0604,34.67981,地震対応,#824100,public recycling bin<br>Name: Mullaly<br>Address: E 165 St Btwn. Jerome Ave & River Ave
工業高等専門学校,,西,神戸市西区学園東町8-3,135.06754,34.67932,津波対応,#824100,public recycling bin<br>Name: Muskrat Playground<br>Address: Bronx Park
井吹東小学校,,西,神戸市西区井吹台東町5-32,135.03802,34.70402,土砂対応,#824100,"public recycling bin<br>Name: New Hoe Avenue Garden<br>Address: E/S Hoe Ave., S/O/ Aldus Street "
井吹台中学校,,西,神戸市西区井吹台西町2-3,135.03032,34.69682,地震対応,#824100,public recycling bin<br>Name: Niles Triangle<br>Address: Bronx Park
井吹西小学校,,西,神戸市西区井吹台西町4-3,135.02286,34.69347,土砂対応,#824100,public recycling bin<br>Name: Noble Playground<br>Address: Noble Ave Btwn. Bronx River Ave & E 177 St
井吹の丘小学校,,西,神戸市西区井吹台北町2-18,135.03092,34.70553,地震対応,#824100,public recycling bin<br>Name: Nursery<br>Address: Van Cortlandt Park
春日台小学校,,西,神戸市西区春日台4-1,134.99572,34.70881,津波対応,#824100,public recycling bin<br>Name: Olinville<br>Address: Bronx Blvd & E 219 St
平野中学校,,西,神戸市西区春日台2-20,134.99821,34.70967,土砂対応,#824100,"public recycling bin<br>Name: Orchard Beach picnic areas, Pelham playground<br>Address: Orchard Beach"
西体育館,,西,神戸市西区春日台5-436,134.98901,34.70291,地震対応,#824100,"public recycling bin<br>Name: Orchard Beach picnic areas, Pelham playground<br>Address: Orchard Beach"
美賀多台小学校,,西,神戸市西区美賀多台6-1,135.00562,34.71996,津波対応,#824100,"public recycling bin<br>Name: Orchard Beach picnic areas, Pelham playground<br>Address: Orchard Beach"
平野小学校,,西,神戸市西区平野町宮前301,134.98203,34.70621,土砂対応,#824100,"public recycling bin<br>Name: Orchard Beach picnic areas, Pelham playground<br>Address: Orchard Beach"
櫨谷小学校,,西,神戸市西区櫨谷町池谷203-2,135.02561,34.71004,地震対応,#824100,"public recycling bin<br>Name: Orchard Beach picnic areas, Pelham playground<br>Address: Orchard Beach"
糀台小学校,,西,神戸市西区糀台3-32-1,135.02347,34.71975,津波対応,#824100,public recycling bin<br>Name: Owen Dolan<br>Address: 2551 Westchester Ave
櫨谷中学校,,西,神戸市西区糀台1-2,135.02863,34.71794,土砂対応,#824100,public recycling bin<br>Name: Owen Dolan<br>Address: 2551 Westchester Ave
狩場台小学校,,西,神戸市西区狩場台3-6-1,135.03239,34.72279,地震対応,#824100,public recycling bin<br>Name: P.O. Serrano<br>Address: Olmstead Ave Btwn Turnbull Ave & Lafayette Ave 
竹の台小学校,,西,神戸市西区竹の台2-10-2,135.01278,34.71266,土砂対応,#824100,public recycling bin<br>Name: Pearly Gates<br>Address: St. Peter's Ave at Tratman Ave 
西神中学校,,西,神戸市西区竹の台5-21,135.00967,34.71421,地震対応,#824100,"public recycling bin<br>Name: Pelham Bay  Ball field, north picnic area<br>Address: Pelham Bay Park"
樫野台小学校,,西,神戸市西区樫野台3-3-1,135.00163,34.70651,津波対応,#824100,"public recycling bin<br>Name: Pelham Bay picnic, running track<br>Address: Pelham Bay Park"
木津小学校,,西,神戸市西区桜が丘東町5-149-31,135.0654,34.74325,土砂対応,#824100,"public recycling bin<br>Name: Quarry Ballfield- Parks<br>Address: E 181 St, oak Tree Pl Btwn. Quarry Rd & Hughes Ave"
桜が丘小学校,,西,神戸市西区桜が丘中町3-3-2,135.05839,34.74519,地震対応,#824100,public recycling bin<br>Name: River Garden<br>Address: 1086 East 180th Street
桜が丘中学校,,西,神戸市西区桜が丘東町2-11-1,135.06082,34.74874,津波対応,#824100,public recycling bin<br>Name: River Park<br>Address: E 180 St & Boston Rd
押部谷小学校,,西,神戸市西区押部谷町福住552-3,135.03761,34.75567,土砂対応,#824100,public recycling bin<br>Name: Riverdale Neighborhood House<br>Address: 5521 Mosholu Ave
北山小学校,,西,神戸市西区北山台3-26-1,135.03139,34.7627,地震対応,#824100,public recycling bin<br>Name: Rosehill Park- Parks<br>Address: Webster Ave & E Fordham Rd
押部谷中学校,,西,神戸市西区押部谷町押部722,135.04436,34.75738,津波対応,#824100,public recycling bin<br>Name: Rosewood- Parks<br>Address: Bronx River Pkwy & Rosewood St
月が丘小学校,,西,神戸市西区月が丘7-2,135.04913,34.75955,土砂対応,#824100,public recycling bin<br>Name: Sachkera Plgd 窶 Parks<br>Address: W Gunhill Rd & Knox Pl 
高和小学校,,西,神戸市西区押部谷町高和565,135.01282,34.74112,地震対応,#824100,public recycling bin<br>Name: Seton Falls Park<br>Address: 3800 Baychester Ave
玉津第一小学校,,西,神戸市西区小山1-4-1,134.9878,34.68478,土砂対応,#824100,public recycling bin<br>Name: Seton Falls Park<br>Address: E 223 St & De Reimer Ave
出合小学校,,西,神戸市西区中野1-22-1,134.97267,34.6774,地震対応,#824100,public recycling bin<br>Name: Skate Park at Allerton<br>Address: Bronx Park East Btwn Britton St & Allerton Ave 
王塚台中学校,,西,神戸市西区王塚台4-58,134.97354,34.6741,津波対応,#824100,public recycling bin<br>Name: Skyview Shopping Plaza<br>Address: Skyview Shopping Plaza (Riverdale Ave & 259 St)
枝吉小学校,,西,神戸市西区枝吉2-95,134.97786,34.66477,土砂対応,#824100,public recycling bin<br>Name: Soundview Parks<br>Address: Lafayette Ave Btwn Colgate Ave & Boynton Ave 
高津橋小学校,,西,神戸市西区玉津町高津橋640-1,134.99498,34.67026,地震対応,#824100,public recycling bin<br>Name: Soundview Parks<br>Address: Metcalf Ave Btwn Lafayette Ave & Seward Ave 
玉津南公民館,,西,神戸市西区玉津町上池314,134.99082,34.66025,津波対応,#824100,public recycling bin<br>Name: Soundview Parks<br>Address: Metcalf Ave Btwn Seward Ave & Randall Ave
玉津中学校,,西,神戸市西区玉津町今津364,134.99249,34.67835,土砂対応,#824100,public recycling bin<br>Name: Soundview Parks<br>Address: Soundview Park
神出小学校,,西,神戸市西区神出町田井444,134.98773,34.74737,地震対応,#824100,public recycling bin<br>Name: Southern Blvd & E 173 St<br>Address: Southern Blvd & 173 St
神出中学校,,西,神戸市西区神出町東1167,134.99644,34.75481,津波対応,#824100,public recycling bin<br>Name: Southwest Plgd Parks<br>Address: Van Cortlandt Park
岩岡小学校,,西,神戸市西区岩岡町古郷267,134.94429,34.71823,土砂対応,#824100,public recycling bin<br>Name: Spuyton Duyvil plgd<br>Address: Seton Park
岩岡中学校,,西,神戸市西区岩岡町古郷249-1,134.94338,34.71628,地震対応,#824100,public recycling bin<br>Name: St. James <br>Address: E 193 St